STARLINK-36264          
1 68307U 26057P   26091.16671296 -.01388872  56868-3 -36829-2 0  9995
2 68307  97.2772 214.5849 0001371  59.4747 289.1853 15.94713104  2981
STARLINK-37138          
1 68308U 26057Q   26091.16671296 -.01388299  56879-3 -36635-2 0  9996
2 68308  97.2765 214.5851 0001341  67.6879 283.9974 15.94805160  2655
STARLINK-37149          
1 68309U 26057R   26091.16671296 -.01390847  57124-3 -36534-2 0  9991
2 68309  97.2760 214.5864 0001343  62.6836 292.6941 15.94892155  2768
STARLINK-37148          
1 68310U 26057S   26091.16671296 -.01387672  56984-3 -36120-2 0  9999
2 68310  97.2759 214.5899 0001376  64.1182 298.9294 15.95063070  2872
STARLINK-37140          
1 68311U 26057T   26091.16671296 -.01389457  57067-3 -36338-2 0  9997
2 68311  97.2762 214.5887 0001328  61.4484 297.9489 15.94974267  3038
STARLINK-36854          
1 68312U 26057U   26091.16671296 -.01410639  58805-3 -36523-2 0  9992
2 68312  97.2758 214.5921 0001478  60.0662 306.5350 15.95165969  2824
STARLINK-36815          
1 68313U 26057V   26091.16671296 -.01438084  60999-3 -37058-2 0  9998
2 68313  97.2758 214.5940 0001475  60.6695 310.0884 15.95258450  2825
STARLINK-37155          
1 68314U 26057W   26091.16671296 -.01591611  73781-3 -40606-2 0  9991
2 68314  97.2751 214.5974 0001490  56.3922 323.0087 15.95467746  2872
STARLINK-37150          
1 68315U 26057X   26090.91671296 -.01501447  66655-3 -37015-2 0  9994
2 68315  97.2757 214.3247 0001291  80.1758 299.9935 15.96094595  2839
STARLINK-37154          
1 68316U 26057Y   26090.91671296 -.01677419  82184-3 -40671-2 0  9995
2 68316  97.2749 214.3299 0001412  59.7010 333.0836 15.96426735  2730
STARLINK-37139          
1 68317U 26057Z   26090.91671296 -.01582004  73608-3 -38580-2 0  9998
2 68317  97.2751 214.3280 0001368  67.0988 321.4037 15.96307243  2589
STARLINK-37113          
1 68318U 26057AA  26090.91671296 -.01749282  88968-3 -42213-2 0  9995
2 68318  97.2749 214.3318 0001396  65.6644 331.6084 15.96523540  2836
