CCSDS_OMM_VERS = 2.0
CREATION_DATE  = 
ORIGINATOR     = 

OBJECT_NAME    = STARLINK-36264
OBJECT_ID      = 2026-057P
CENTER_NAME    = EARTH
REF_FRAME      = TEME
TIME_SYSTEM    = UTC
MEAN_ELEMENT_THEORY = SGP/SGP4

EPOCH          = 2026-04-01T04:00:03.999744
MEAN_MOTION    = 15.94713104
ECCENTRICITY   = .0001371
INCLINATION    = 97.2772
RA_OF_ASC_NODE = 214.5849
ARG_OF_PERICENTER = 59.4747
MEAN_ANOMALY   = 289.1853

EPHEMERIS_TYPE = 0
CLASSIFICATION_TYPE = U
NORAD_CAT_ID   = 68307
ELEMENT_SET_NO = 999
REV_AT_EPOCH   = 298
BSTAR          = -.36829E-2
MEAN_MOTION_DOT = -.1388872E-1
MEAN_MOTION_DDOT = .56868E-3

CCSDS_OMM_VERS = 2.0
CREATION_DATE  = 
ORIGINATOR     = 

OBJECT_NAME    = STARLINK-37138
OBJECT_ID      = 2026-057Q
CENTER_NAME    = EARTH
REF_FRAME      = TEME
TIME_SYSTEM    = UTC
MEAN_ELEMENT_THEORY = SGP/SGP4

EPOCH          = 2026-04-01T04:00:03.999744
MEAN_MOTION    = 15.94805160
ECCENTRICITY   = .0001341
INCLINATION    = 97.2765
RA_OF_ASC_NODE = 214.5851
ARG_OF_PERICENTER = 67.6879
MEAN_ANOMALY   = 283.9974

EPHEMERIS_TYPE = 0
CLASSIFICATION_TYPE = U
NORAD_CAT_ID   = 68308
ELEMENT_SET_NO = 999
REV_AT_EPOCH   = 265
BSTAR          = -.36635E-2
MEAN_MOTION_DOT = -.1388299E-1
MEAN_MOTION_DDOT = .56879E-3

CCSDS_OMM_VERS = 2.0
CREATION_DATE  = 
ORIGINATOR     = 

OBJECT_NAME    = STARLINK-37149
OBJECT_ID      = 2026-057R
CENTER_NAME    = EARTH
REF_FRAME      = TEME
TIME_SYSTEM    = UTC
MEAN_ELEMENT_THEORY = SGP/SGP4

EPOCH          = 2026-04-01T04:00:03.999744
MEAN_MOTION    = 15.94892155
ECCENTRICITY   = .0001343
INCLINATION    = 97.2760
RA_OF_ASC_NODE = 214.5864
ARG_OF_PERICENTER = 62.6836
MEAN_ANOMALY   = 292.6941

EPHEMERIS_TYPE = 0
CLASSIFICATION_TYPE = U
NORAD_CAT_ID   = 68309
ELEMENT_SET_NO = 999
REV_AT_EPOCH   = 276
BSTAR          = -.36534E-2
MEAN_MOTION_DOT = -.1390847E-1
MEAN_MOTION_DDOT = .57124E-3

CCSDS_OMM_VERS = 2.0
CREATION_DATE  = 
ORIGINATOR     = 

OBJECT_NAME    = STARLINK-37148
OBJECT_ID      = 2026-057S
CENTER_NAME    = EARTH
REF_FRAME      = TEME
TIME_SYSTEM    = UTC
MEAN_ELEMENT_THEORY = SGP/SGP4

EPOCH          = 2026-04-01T04:00:03.999744
MEAN_MOTION    = 15.95063070
ECCENTRICITY   = .0001376
INCLINATION    = 97.2759
RA_OF_ASC_NODE = 214.5899
ARG_OF_PERICENTER = 64.1182
MEAN_ANOMALY   = 298.9294

EPHEMERIS_TYPE = 0
CLASSIFICATION_TYPE = U
NORAD_CAT_ID   = 68310
ELEMENT_SET_NO = 999
REV_AT_EPOCH   = 287
BSTAR          = -.3612E-2
MEAN_MOTION_DOT = -.1387672E-1
MEAN_MOTION_DDOT = .56984E-3

CCSDS_OMM_VERS = 2.0
CREATION_DATE  = 
ORIGINATOR     = 

OBJECT_NAME    = STARLINK-37140
OBJECT_ID      = 2026-057T
CENTER_NAME    = EARTH
REF_FRAME      = TEME
TIME_SYSTEM    = UTC
MEAN_ELEMENT_THEORY = SGP/SGP4

EPOCH          = 2026-04-01T04:00:03.999744
MEAN_MOTION    = 15.94974267
ECCENTRICITY   = .0001328
INCLINATION    = 97.2762
RA_OF_ASC_NODE = 214.5887
ARG_OF_PERICENTER = 61.4484
MEAN_ANOMALY   = 297.9489

EPHEMERIS_TYPE = 0
CLASSIFICATION_TYPE = U
NORAD_CAT_ID   = 68311
ELEMENT_SET_NO = 999
REV_AT_EPOCH   = 303
BSTAR          = -.36338E-2
MEAN_MOTION_DOT = -.1389457E-1
MEAN_MOTION_DDOT = .57067E-3

CCSDS_OMM_VERS = 2.0
CREATION_DATE  = 
ORIGINATOR     = 

OBJECT_NAME    = STARLINK-36854
OBJECT_ID      = 2026-057U
CENTER_NAME    = EARTH
REF_FRAME      = TEME
TIME_SYSTEM    = UTC
MEAN_ELEMENT_THEORY = SGP/SGP4

EPOCH          = 2026-04-01T04:00:03.999744
MEAN_MOTION    = 15.95165969
ECCENTRICITY   = .0001478
INCLINATION    = 97.2758
RA_OF_ASC_NODE = 214.5921
ARG_OF_PERICENTER = 60.0662
MEAN_ANOMALY   = 306.5350

EPHEMERIS_TYPE = 0
CLASSIFICATION_TYPE = U
NORAD_CAT_ID   = 68312
ELEMENT_SET_NO = 999
REV_AT_EPOCH   = 282
BSTAR          = -.36523E-2
MEAN_MOTION_DOT = -.1410639E-1
MEAN_MOTION_DDOT = .58805E-3

CCSDS_OMM_VERS = 2.0
CREATION_DATE  = 
ORIGINATOR     = 

OBJECT_NAME    = STARLINK-36815
OBJECT_ID      = 2026-057V
CENTER_NAME    = EARTH
REF_FRAME      = TEME
TIME_SYSTEM    = UTC
MEAN_ELEMENT_THEORY = SGP/SGP4

EPOCH          = 2026-04-01T04:00:03.999744
MEAN_MOTION    = 15.95258450
ECCENTRICITY   = .0001475
INCLINATION    = 97.2758
RA_OF_ASC_NODE = 214.5940
ARG_OF_PERICENTER = 60.6695
MEAN_ANOMALY   = 310.0884

EPHEMERIS_TYPE = 0
CLASSIFICATION_TYPE = U
NORAD_CAT_ID   = 68313
ELEMENT_SET_NO = 999
REV_AT_EPOCH   = 282
BSTAR          = -.37058E-2
MEAN_MOTION_DOT = -.1438084E-1
MEAN_MOTION_DDOT = .60999E-3

CCSDS_OMM_VERS = 2.0
CREATION_DATE  = 
ORIGINATOR     = 

OBJECT_NAME    = STARLINK-37155
OBJECT_ID      = 2026-057W
CENTER_NAME    = EARTH
REF_FRAME      = TEME
TIME_SYSTEM    = UTC
MEAN_ELEMENT_THEORY = SGP/SGP4

EPOCH          = 2026-04-01T04:00:03.999744
MEAN_MOTION    = 15.95467746
ECCENTRICITY   = .000149
INCLINATION    = 97.2751
RA_OF_ASC_NODE = 214.5974
ARG_OF_PERICENTER = 56.3922
MEAN_ANOMALY   = 323.0087

EPHEMERIS_TYPE = 0
CLASSIFICATION_TYPE = U
NORAD_CAT_ID   = 68314
ELEMENT_SET_NO = 999
REV_AT_EPOCH   = 287
BSTAR          = -.40606E-2
MEAN_MOTION_DOT = -.1591611E-1
MEAN_MOTION_DDOT = .73781E-3

CCSDS_OMM_VERS = 2.0
CREATION_DATE  = 
ORIGINATOR     = 

OBJECT_NAME    = STARLINK-37150
OBJECT_ID      = 2026-057X
CENTER_NAME    = EARTH
REF_FRAME      = TEME
TIME_SYSTEM    = UTC
MEAN_ELEMENT_THEORY = SGP/SGP4

EPOCH          = 2026-03-31T22:00:03.999744
MEAN_MOTION    = 15.96094595
ECCENTRICITY   = .0001291
INCLINATION    = 97.2757
RA_OF_ASC_NODE = 214.3247
ARG_OF_PERICENTER = 80.1758
MEAN_ANOMALY   = 299.9935

EPHEMERIS_TYPE = 0
CLASSIFICATION_TYPE = U
NORAD_CAT_ID   = 68315
ELEMENT_SET_NO = 999
REV_AT_EPOCH   = 283
BSTAR          = -.37015168E-2
MEAN_MOTION_DOT = -.1501447E-1
MEAN_MOTION_DDOT = .66654832E-3

CCSDS_OMM_VERS = 2.0
CREATION_DATE  = 
ORIGINATOR     = 

OBJECT_NAME    = STARLINK-37154
OBJECT_ID      = 2026-057Y
CENTER_NAME    = EARTH
REF_FRAME      = TEME
TIME_SYSTEM    = UTC
MEAN_ELEMENT_THEORY = SGP/SGP4

EPOCH          = 2026-03-31T22:00:03.999744
MEAN_MOTION    = 15.96426735
ECCENTRICITY   = .00014126
INCLINATION    = 97.2749
RA_OF_ASC_NODE = 214.3299
ARG_OF_PERICENTER = 59.7010
MEAN_ANOMALY   = 333.0836

EPHEMERIS_TYPE = 0
CLASSIFICATION_TYPE = U
NORAD_CAT_ID   = 68316
ELEMENT_SET_NO = 999
REV_AT_EPOCH   = 273
BSTAR          = -.40671177E-2
MEAN_MOTION_DOT = -.1677419E-1
MEAN_MOTION_DDOT = .82184433E-3

CCSDS_OMM_VERS = 2.0
CREATION_DATE  = 
ORIGINATOR     = 

OBJECT_NAME    = STARLINK-37139
OBJECT_ID      = 2026-057Z
CENTER_NAME    = EARTH
REF_FRAME      = TEME
TIME_SYSTEM    = UTC
MEAN_ELEMENT_THEORY = SGP/SGP4

EPOCH          = 2026-03-31T22:00:03.999744
MEAN_MOTION    = 15.96307243
ECCENTRICITY   = .00013682
INCLINATION    = 97.2751
RA_OF_ASC_NODE = 214.3280
ARG_OF_PERICENTER = 67.0988
MEAN_ANOMALY   = 321.4037

EPHEMERIS_TYPE = 0
CLASSIFICATION_TYPE = U
NORAD_CAT_ID   = 68317
ELEMENT_SET_NO = 999
REV_AT_EPOCH   = 258
BSTAR          = -.38579527E-2
MEAN_MOTION_DOT = -.1582004E-1
MEAN_MOTION_DDOT = .73608291E-3

CCSDS_OMM_VERS = 2.0
CREATION_DATE  = 
ORIGINATOR     = 

OBJECT_NAME    = STARLINK-37113
OBJECT_ID      = 2026-057AA
CENTER_NAME    = EARTH
REF_FRAME      = TEME
TIME_SYSTEM    = UTC
MEAN_ELEMENT_THEORY = SGP/SGP4

EPOCH          = 2026-03-31T22:00:03.999744
MEAN_MOTION    = 15.96523540
ECCENTRICITY   = .00013968
INCLINATION    = 97.2749
RA_OF_ASC_NODE = 214.3318
ARG_OF_PERICENTER = 65.6644
MEAN_ANOMALY   = 331.6084

EPHEMERIS_TYPE = 0
CLASSIFICATION_TYPE = U
NORAD_CAT_ID   = 68318
ELEMENT_SET_NO = 999
REV_AT_EPOCH   = 283
BSTAR          = -.4221347E-2
MEAN_MOTION_DOT = -.1749282E-1
MEAN_MOTION_DDOT = .8896767E-3

